CSS (TIANHE)            
1 48274U 21035A   23239.73122932  .00030511  00000+0  35020-3 0  9996
2 48274  41.4736  80.9321 0010620 249.1023 110.8680 15.61330075133018
